STARLINK-35280          
1 66025U 25232W   26155.06381457  .00021952  00000+0  75069-3 0  9994
2 66025  53.1606  62.4369 0001332  80.5060 279.6091 15.30217607 36667
STARLINK-34812          
1 66026U 25232X   26155.01202647  .00035444  00000+0  10543-2 0  9999
2 66026  53.1605  62.8317 0001215 102.1375 257.9763 15.34428760 36645
STARLINK-35341          
1 66027U 25232Y   26155.02464152  .00027213  00000+0  81213-3 0  9990
2 66027  53.1607  62.8981 0004481 187.5616 172.5319 15.34452404 36650
STARLINK-35339          
1 66028U 25232Z   26155.00002315  .00003149  00000+0  10702-3 0  9995
2 66028  53.1582  63.0523 0001142  89.5296 113.5712 15.33554034  5912
STARLINK-35399          
1 66029U 25232AA  26153.08654292  .00027475  00000+0  93588-3 0  9990
2 66029  53.1597  72.1317 0001375 110.2039 249.9110 15.30216176 36353
STARLINK-35431          
1 66030U 25232AB  26155.21164855  .00027034  00000+0  80848-3 0  9996
2 66030  53.1604  61.9317 0001094  72.2769 287.8353 15.34395762 36684
STARLINK-35326          
1 66031U 25232AC  26155.04981282  .00025834  00000+0  77271-3 0  9991
2 66031  53.1577  62.3549 0000899 109.8398 250.2701 15.34416229 36664
STARLINK-35311          
1 66032U 25232AD  26155.05402346  .00024910  00000+0  74572-3 0  9997
2 66032  53.1597  62.3658 0001420  93.5126 266.6039 15.34408917 36667
QIANFAN-91              
1 66033U 25233A   26154.65381904  .00000171  00000+0  24691-3 0  9990
2 66033  89.0012  44.5582 0001937  70.9593 289.1768 13.51008611 31350
QIANFAN-92              
1 66034U 25233B   26154.58799451  .00000165  00000+0  23646-3 0  9995
2 66034  88.9996  44.5388 0002129  73.8523 286.2863 13.51011633 31344
QIANFAN-93              
1 66035U 25233C   26154.59622713  .00000152  00000+0  21733-3 0  9994
2 66035  89.0023  44.5860 0002006  71.3367 288.8002 13.51010513 31345
QIANFAN-94              
1 66036U 25233D   26154.95418485  .00000149  00000+0  21174-3 0  9999
2 66036  89.0018  44.4537 0002025  75.8069 284.3307 13.51009076 31441
QIANFAN-95              
1 66037U 25233E   26154.59214496  .00000155  00000+0  22084-3 0  9994
2 66037  89.0016  44.0344 0001847  74.0248 286.1107 13.51010173 31643
QIANFAN-96              
1 66038U 25233F   26155.06118509  .00000165  00000+0  23691-3 0  9992
2 66038  89.0014  44.5307 0001875  71.3634 288.7721 13.51009401 31402
QIANFAN-97              
1 66039U 25233G   26154.60033305  .00000151  00000+0  21468-3 0  9997
2 66039  89.0018  44.5609 0001951  71.5000 288.6363 13.51009274 31359
QIANFAN-98              
1 66040U 25233H   26155.05291505  .00000164  00000+0  23466-3 0  9991
2 66040  89.0007  44.2475 0002038  88.7213 271.4171 13.51009568 31555
QIANFAN-99              
1 66041U 25233J   26155.05701285  .00000169  00000+0  24382-3 0  9996
2 66041  89.0019  44.5187 0001924  84.4884 275.6487 13.51009318 31416
QIANFAN-100             
1 66042U 25233K   26154.60442513  .00000156  00000+0  22360-3 0  9993
2 66042  89.0028  44.4899 0001980  71.1736 288.9630 13.51012099 31403
QIANFAN-101             
1 66043U 25233L   26154.61849694  .00000334  00000+0  13187-3 0  9991
2 66043  89.0012  42.1259 0014739 179.5800 180.5409 14.26799525 32695
QIANFAN-102             
1 66044U 25233M   26154.62500629  .00000155  00000+0  22110-3 0  9992
2 66044  89.0016  44.4722 0001992  76.7532 283.3841 13.51009167 31400
QIANFAN-103             
1 66045U 25233N   26154.62914272  .00000151  00000+0  21473-3 0  9993
2 66045  89.0018  44.5666 0001996  70.7528 289.3839 13.51010040 31353
QIANFAN-104             
1 66046U 25233P   26154.63324258  .00000156  00000+0  22242-3 0  9994
2 66046  89.0022  44.4677 0002092  77.5540 282.5846 13.51012365 31408
QIANFAN-105             
1 66047U 25233Q   26154.64145973  .00000163  00000+0  23313-3 0  9999
2 66047  89.0036  44.3083 0001885  74.3673 285.7687 13.51011784 31519
QIANFAN-106             
1 66048U 25233R   26154.63738789  .00000153  00000+0  21863-3 0  9999
2 66048  89.0005  44.5258 0002000  85.6382 274.4998 13.51009267 31359
QIANFAN-107             
1 66049U 25233S   26154.64558236  .00000165  00000+0  23704-3 0  9997
2 66049  89.0020  44.5552 0001999  71.5558 288.5810 13.51008593 31360
QIANFAN-108             
1 66050U 25233T   26154.64971544  .00000166  00000+0  23898-3 0  9995
2 66050  89.0014  44.5435 0002046  84.1951 275.9433 13.51009745 31367
2025-234B               
1 66054U 25234B   26155.10536126  .00005924  00000+0  27050-3 0  9996
2 66054  97.4764 224.4397 0012411 134.9433 225.2811 15.20905866 34658
2025-234C               
1 66055U 25234C   26154.49644488  .00005440  00000+0  22684-3 0  9990
2 66055  97.4260 223.0124 0014287 200.2822 159.7850 15.24017463 34605
2025-234D               
1 66056U 25234D   26154.78220988  .00014928  00000+0  67305-3 0  9998
2 66056  97.4252 222.8840 0002357 145.1065 215.0325 15.21122228 34617
STARLINK-35552          
1 66058U 25235A   26154.33014832  .00032038  00000+0  95518-3 0  9990
2 66058  53.1583 203.8747 0001272 132.5000 227.6111 15.34404144 36083
