OBJECT_NAME,OBJECT_ID,EPOCH,MEAN_MOTION,ECCENTRICITY,INCLINATION,RA_OF_ASC_NODE,ARG_OF_PERICENTER,MEAN_ANOMALY,EPHEMERIS_TYPE,CLASSIFICATION_TYPE,NORAD_CAT_ID,ELEMENT_SET_NO,REV_AT_EPOCH,BSTAR,MEAN_MOTION_DOT,MEAN_MOTION_DDOT
STARLINK-35280,2025-232W,2026-06-04T01:31:53.578848,15.30217607,.0001332,53.1606,62.4369,80.5060,279.6091,0,U,66025,999,3666,.75069E-3,.21952E-3,0
STARLINK-34812,2025-232X,2026-06-04T00:17:19.087008,15.34428760,.0001215,53.1605,62.8317,102.1375,257.9763,0,U,66026,999,3664,.10543E-2,.35444E-3,0
STARLINK-35341,2025-232Y,2026-06-04T00:35:29.027328,15.34452404,.0004481,53.1607,62.8981,187.5616,172.5319,0,U,66027,999,3665,.81213E-3,.27213E-3,0
STARLINK-35339,2025-232Z,2026-06-04T00:00:02.000160,15.33554034,.0001142,53.1582,63.0523,89.5296,113.5712,0,U,66028,999,591,.10702E-3,.3149E-4,0
STARLINK-35399,2025-232AA,2026-06-02T02:04:37.308288,15.30216176,.00013758,53.1597,72.1317,110.2039,249.9110,0,U,66029,999,3635,.93587755E-3,.27475E-3,0
STARLINK-35431,2025-232AB,2026-06-04T05:04:46.434720,15.34395762,.0001094,53.1604,61.9317,72.2769,287.8353,0,U,66030,999,3668,.80848E-3,.27034E-3,0
STARLINK-35326,2025-232AC,2026-06-04T01:11:43.827648,15.34416229,.0000899,53.1577,62.3549,109.8398,250.2701,0,U,66031,999,3666,.77271E-3,.25834E-3,0
STARLINK-35311,2025-232AD,2026-06-04T01:17:47.626944,15.34408917,.000142,53.1597,62.3658,93.5126,266.6039,0,U,66032,999,3666,.74572E-3,.2491E-3,0
QIANFAN-91,2025-233A,2026-06-03T15:41:29.965056,13.51008611,.0001937,89.0012,44.5582,70.9593,289.1768,0,U,66033,999,3135,.24691E-3,.171E-5,0
QIANFAN-92,2025-233B,2026-06-03T14:06:42.725664,13.51011633,.00021294,88.9996,44.5388,73.8523,286.2863,0,U,66034,999,3134,.23646432E-3,.165E-5,0
QIANFAN-93,2025-233C,2026-06-03T14:18:34.024032,13.51010513,.00020067,89.0023,44.5860,71.3367,288.8002,0,U,66035,999,3134,.21732851E-3,.152E-5,0
QIANFAN-94,2025-233D,2026-06-03T22:54:01.571040,13.51009076,.0002025,89.0018,44.4537,75.8069,284.3307,0,U,66036,999,3144,.21174E-3,.149E-5,0
QIANFAN-95,2025-233E,2026-06-03T14:12:41.324544,13.51010173,.00018471,89.0016,44.0344,74.0248,286.1107,0,U,66037,999,3164,.22083797E-3,.155E-5,0
QIANFAN-96,2025-233F,2026-06-04T01:28:06.391776,13.51009401,.0001875,89.0014,44.5307,71.3634,288.7721,0,U,66038,999,3140,.23691E-3,.165E-5,0
QIANFAN-97,2025-233G,2026-06-03T14:24:28.775520,13.51009274,.00019517,89.0018,44.5609,71.5000,288.6363,0,U,66039,999,3135,.21468487E-3,.151E-5,0
QIANFAN-98,2025-233H,2026-06-04T01:16:11.860320,13.51009568,.0002038,89.0007,44.2475,88.7213,271.4171,0,U,66040,999,3155,.23466E-3,.164E-5,0
QIANFAN-99,2025-233J,2026-06-04T01:22:05.910240,13.51009318,.0001924,89.0019,44.5187,84.4884,275.6487,0,U,66041,999,3141,.24382E-3,.169E-5,0
QIANFAN-100,2025-233K,2026-06-03T14:30:22.331232,13.51012099,.00019802,89.0028,44.4899,71.1736,288.9630,0,U,66042,999,3140,.22360085E-3,.156E-5,0
QIANFAN-101,2025-233L,2026-06-03T14:50:38.135616,14.26799525,.00147392,89.0012,42.1259,179.5800,180.5409,0,U,66043,999,3269,.13186579E-3,.334E-5,0
QIANFAN-102,2025-233M,2026-06-03T15:00:00.543456,13.51009167,.00019925,89.0016,44.4722,76.7532,283.3841,0,U,66044,999,3140,.22109828E-3,.155E-5,0
QIANFAN-103,2025-233N,2026-06-03T15:05:57.931008,13.51010040,.0001996,89.0018,44.5666,70.7528,289.3839,0,U,66045,999,3135,.21473E-3,.151E-5,0
QIANFAN-104,2025-233P,2026-06-03T15:11:52.158912,13.51012365,.0002092,89.0022,44.4677,77.5540,282.5846,0,U,66046,999,3140,.22242E-3,.156E-5,0
QIANFAN-105,2025-233Q,2026-06-03T15:23:42.120672,13.51011784,.0001885,89.0036,44.3083,74.3673,285.7687,0,U,66047,999,3151,.23313E-3,.163E-5,0
QIANFAN-106,2025-233R,2026-06-03T15:17:50.313696,13.51009267,.0002,89.0005,44.5258,85.6382,274.4998,0,U,66048,999,3135,.21863E-3,.153E-5,0
QIANFAN-107,2025-233S,2026-06-03T15:29:38.315904,13.51008593,.0001999,89.0020,44.5552,71.5558,288.5810,0,U,66049,999,3136,.23704E-3,.165E-5,0
QIANFAN-108,2025-233T,2026-06-03T15:35:35.414016,13.51009745,.0002046,89.0014,44.5435,84.1951,275.9433,0,U,66050,999,3136,.23898E-3,.166E-5,0
2025-234B,2025-234B,2026-06-04T02:31:43.212864,15.20905866,.0012411,97.4764,224.4397,134.9433,225.2811,0,U,66054,999,3465,.2705E-3,.5924E-4,0
2025-234C,2025-234C,2026-06-03T11:54:52.837632,15.24017463,.00142879,97.4260,223.0124,200.2822,159.7850,0,U,66055,999,3460,.22684154E-3,.544E-4,0
2025-234D,2025-234D,2026-06-03T18:46:22.933632,15.21122228,.00023574,97.4252,222.8840,145.1065,215.0325,0,U,66056,999,3461,.67305169E-3,.14928E-3,0
STARLINK-35552,2025-235A,2026-06-03T07:55:24.814848,15.34404144,.00012725,53.1583,203.8747,132.5000,227.6111,0,U,66058,999,3608,.95517666E-3,.32038E-3,0
